SPAWAR-CAL-R            
1 43776U 18099U   26067.65115975  .00003570  00000+0  25336-3 0  9990
2 43776  97.4524 111.5817 0019701 348.9052  11.1737 15.05212097396878
STARLINK-3285           
1 50181U 21125AB  26068.80306852  .00005873  00000+0  38691-3 0  9992
2 50181  53.2154 248.6220 0000990  96.1062 264.0043 15.08829905236628
